H1 CPF  1  DLR 2022 05 19 10  6392 technosat            
H2  1704205 6203    42829 2022 05 19 00 00 00 2022 05 26 00 00 00    60 1 1  0 0 0
H9
10 0 59718  21600.000000  0       4737510.449       1835297.867       4759274.202
10 0 59718  21660.000000  0       4478071.083       1626255.816       5074377.751
10 0 59718  21720.000000  0       4197862.017       1412703.334       5367885.113
10 0 59718  21780.000000  0       3898031.918       1195719.231       5638546.310
10 0 59718  21840.000000  0       3579822.056        976386.464       5885208.905
10 0 59718  21900.000000  0       3244560.929        755786.706       6106822.742
10 0 59718  21960.000000  0       2893658.578        534995.042       6302444.271
10 0 59718  22020.000000  0       2528600.551        315074.779       6471240.498
10 0 59718  22080.000000  0       2150941.494         97072.301       6612492.487
10 0 59718  22140.000000  0       1762298.434       -117987.910       6725598.371
10 0 59718  22200.000000  0       1364343.729       -329108.118       6810075.944
10 0 59718  22260.000000  0        958797.670       -535322.025       6865564.651
10 0 59718  22320.000000  0        547420.969       -735699.225       6891826.983
10 0 59718  22380.000000  0        132007.056       -929349.398       6888749.511
10 0 59718  22440.000000  0       -285625.833      -1115426.337       6856343.361
10 0 59718  22500.000000  0       -703642.669      -1293131.701       6794744.176
10 0 59718  22560.000000  0      -1120199.776      -1461718.504       6704211.553
10 0 59718  22620.000000  0      -1533452.999      -1620494.282       6585127.957
10 0 59718  22680.000000  0      -1941565.878      -1768823.943       6437997.183
10 0 59718  22740.000000  0      -2342717.838      -1906132.314       6263442.385
10 0 59718  22800.000000  0      -2735112.390      -2031906.437       6062203.711
10 0 59718  22860.000000  0      -3116985.452      -2145697.588       5835135.411
10 0 59718  22920.000000  0      -3486613.590      -2247122.956       5583202.262
10 0 59718  22980.000000  0      -3842321.961      -2335866.931       5307475.478
10 0 59718  23040.000000  0      -4182492.126      -2411682.073       5009128.268
10 0 59718  23100.000000  0      -4505569.700      -2474389.730       4689430.852
10 0 59718  23160.000000  0      -4810071.675      -2523880.236       4349745.032
10 0 59718  23220.000000  0      -5094593.461      -2560112.775       3991518.380
10 0 59718  23280.000000  0      -5357815.607      -2583114.879       3616278.053
10 0 59718  23340.000000  0      -5598510.169      -2592981.594       3225624.231
10 0 59718  23400.000000  0      -5815546.706      -2589874.279       2821223.197
10 0 59718  23460.000000  0      -6007897.822      -2574019.115       2404800.102
10 0 59718  23520.000000  0      -6174644.303      -2545705.289       1978131.403
10 0 59718  23580.000000  0      -6314979.733      -2505282.794       1543036.944
10 0 59718  23640.000000  0      -6428214.410      -2453159.851       1101371.836
10 0 59718  23700.000000  0      -6513778.698      -2389800.068        655018.325
10 0 59718  23760.000000  0      -6571225.940      -2315719.362        205877.512
10 0 59718  23820.000000  0      -6600234.743      -2231482.584       -244139.100
10 0 59718  23880.000000  0      -6600610.574      -2137699.874       -693118.097
10 0 59718  23940.000000  0      -6572286.681      -2035022.837      -1139152.577
10 0 59718  24000.000000  0      -6515324.419      -1924140.531      -1580350.492
10 0 59718  24060.000000  0      -6429912.951      -1805775.295      -2014842.871
10 0 59718  24120.000000  0      -6316368.329      -1680678.439      -2440791.890
10 0 59718  24180.000000  0      -6175131.978      -1549625.829      -2856398.728
10 0 59718  24240.000000  0      -6006768.599      -1413413.406      -3259911.218
10 0 59718  24300.000000  0      -5811963.488      -1272852.640      -3649631.215
10 0 59718  24360.000000  0      -5591519.331      -1128765.976      -4023921.658
10 0 59718  24420.000000  0      -5346352.472       -981982.265      -4381213.312
10 0 59718  24480.000000  0      -5077488.689       -833332.223      -4720011.151
10 0 59718  24540.000000  0      -4786058.479       -683643.949      -5038900.363
10 0 59718  24600.000000  0      -4473291.913       -533738.563      -5336551.943
10 0 59718  24660.000000  0      -4140513.091       -384425.912      -5611727.870
10 0 59718  24720.000000  0      -3789134.247       -236500.405      -5863285.838
10 0 59718  24780.000000  0      -3420649.529        -90736.998      -6090183.550
10 0 59718  24840.000000  0      -3036628.501         52112.650      -6291482.576
10 0 59718  24900.000000  0      -2638709.424        191323.836      -6466351.804
10 0 59718  24960.000000  0      -2228592.219        326202.265      -6614070.505
10 0 59718  25020.000000  0      -1808031.222        456087.290      -6734030.884
10 0 59718  25080.000000  0      -1378827.820        580354.968      -6825740.224
10 0 59718  25140.000000  0       -942822.915        698420.922      -6888822.610
10 0 59718  25200.000000  0       -501889.247        809742.969      -6923020.184
10 0 59718  25260.000000  0        -57923.655        913823.472      -6928193.989
10 0 59718  25320.000000  0        387160.720       1010211.425      -6904324.490
10 0 59718  25380.000000  0        831442.400       1098504.308      -6851511.776
10 0 59718  25440.000000  0       1272999.710       1178349.758      -6769975.207
10 0 59718  25500.000000  0       1709918.811       1249446.940      -6660052.506
10 0 59718  25560.000000  0       2140301.699       1311547.647      -6522198.574
10 0 59718  25620.000000  0       2562274.302       1364457.157      -6356983.838
10 0 59718  25680.000000  0       2973994.464       1408034.778      -6165092.057
10 0 59718  25740.000000  0       3373659.736       1442194.123      -5947317.799
10 0 59718  25800.000000  0       3759515.153       1466903.141      -5704563.566
10 0 59718  25860.000000  0       4129860.905       1482183.853      -5437836.466
10 0 59718  25920.000000  0       4483059.867       1488111.842      -5148244.475
10 0 59718  25980.000000  0       4817544.981       1484815.467      -4836992.211
10 0 59718  26040.000000  0       5131826.327       1472474.789      -4505376.265
10 0 59718  26100.000000  0       5424497.942       1451320.225      -4154780.172
10 0 59718  26160.000000  0       5694244.350       1421630.946      -3786668.973
10 0 59718  26220.000000  0       5939846.744       1383733.000      -3402583.413
10 0 59718  26280.000000  0       6160188.834       1337997.189      -3004133.791
10 0 59718  26340.000000  0       6354262.340       1284836.715      -2592993.412
10 0 59718  26400.000000  0       6521171.994       1224704.590      -2170891.679
10 0 59718  26460.000000  0       6660140.061       1158090.820      -1739606.868
10 0 59718  26520.000000  0       6770510.323       1085519.365      -1300958.646
10 0 59718  26580.000000  0       6851751.534       1007544.890       -856800.361
10 0 59718  26640.000000  0       6903460.288        924749.362       -409011.078
10 0 59718  26700.000000  0       6925363.216        837738.526         40512.502
10 0 59718  26760.000000  0       6917318.663        747138.264        489864.160
10 0 59718  26820.000000  0       6879317.806        653590.788        937136.452
10 0 59718  26880.000000  0       6811485.084        557750.709       1380429.046
10 0 59718  26940.000000  0       6714077.984        460281.086       1817857.113
10 0 59718  27000.000000  0       6587486.047        361849.427       2247559.661
10 0 59718  27060.000000  0       6432229.259        263123.688       2667707.627
10 0 59718  27120.000000  0       6248955.965        164768.268       3076511.886
10 0 59718  27180.000000  0       6038440.040         67439.975       3472231.206
10 0 59718  27240.000000  0       5801577.304        -28215.873       3853179.787
10 0 59718  27300.000000  0       5539381.621       -121569.162       4217734.479
10 0 59718  27360.000000  0       5252980.466       -212008.721       4564341.947
10 0 59718  27420.000000  0       4943609.786       -298945.979       4891525.433
10 0 59718  27480.000000  0       4612608.370       -381818.414       5197891.139
10 0 59718  27540.000000  0       4261411.690       -460092.834       5482134.117
10 0 59718  27600.000000  0       3891545.488       -533268.423       5743043.751
10 0 59718  27660.000000  0       3504618.938       -600879.597       5979508.935
10 0 59718  27720.000000  0       3102317.389       -662498.687       6190522.746
10 0 59718  27780.000000  0       2686394.828       -717738.386       6375186.600
10 0 59718  27840.000000  0       2258666.130       -766253.924       6532714.040
10 0 59718  27900.000000  0       1820998.962       -807745.021       6662434.080
10 0 59718  27960.000000  0       1375305.420       -841957.607       6763794.002
10 0 59718  28020.000000  0        923533.498       -868685.232       6836361.590
10 0 59718  28080.000000  0        467658.500       -887770.184       6879826.871
10 0 59718  28140.000000  0          9674.308       -899104.374       6894003.406
10 0 59718  28200.000000  0       -448415.400       -902629.928       6878829.019
10 0 59718  28260.000000  0       -904605.961       -898339.501       6834366.108
10 0 59718  28320.000000  0      -1356900.591       -886276.272       6760801.407
10 0 59718  28380.000000  0      -1803319.167       -866533.658       6658445.220
10 0 59718  28440.000000  0      -2241906.948       -839254.750       6527730.209
10 0 59718  28500.000000  0      -2670743.204       -804631.467       6369209.706
10 0 59718  28560.000000  0      -3087949.787       -762903.404       6183555.566
10 0 59718  28620.000000  0      -3491699.574       -714356.423       5971555.452
10 0 59718  28680.000000  0      -3880224.676       -659321.017       5734109.632
10 0 59718  28740.000000  0      -4251824.456       -598170.373       5472227.299
99
